{"type": "FeatureCollection", "features": [{"type": "Feature", "geometry": {"type": "LineString", "coordinates": [[14.6035, 120.983], [14.6024, 120.98707], [14.60049, 120.99078], [14.60052, 120.99149], [14.60072, 120.99205], [14.600980000000002, 120.9929], [14.60114, 120.99349], [14.60119, 120.99402], [14.6006, 120.99598], [14.60063, 120.99651], [14.60085, 120.99727], [14.600930000000002, 120.99770999999998], [14.600770000000002, 120.99804999999998], [14.600680000000002, 120.99830999999998], [14.600630000000002, 120.99859999999998], [14.600590000000002, 120.99889], [14.600680000000002, 120.99921], [14.600790000000002, 120.99958], [14.600920000000002, 120.99982], [14.601060000000002, 121.00016], [14.601240000000002, 121.00128], [14.601650000000005, 121.0042], [14.604200000000002, 121.017], [14.609040000000002, 121.02228], [14.609500000000002, 121.02301], [14.610500000000002, 121.026], [14.612510000000002, 121.03226], [14.615330000000002, 121.03732], [14.617990000000002, 121.04187], [14.619220000000002, 121.04402], [14.620960000000002, 121.04892999999998], [14.62299, 121.05329], [14.62769, 121.06283], [14.62804, 121.06504], [14.62841, 121.06689], [14.62883, 121.06809], [14.63111, 121.07303], [14.63252, 121.07599], [14.632550000000002, 121.07657], [14.632300000000004, 121.0774], [14.631840000000002, 121.07781], [14.630680000000002, 121.07873], [14.62596, 121.08204], [14.62434, 121.08357], [14.62392, 121.08406], [14.62326, 121.08479], [14.623, 121.08512], [14.6223, 121.086], [14.6223, 121.086], [14.6223, 121.086], [14.62227, 121.08603], [14.62221, 121.08601], [14.622559999999998, 121.08565], [14.622299999999996, 121.08599999999998], [14.622299999999996, 121.08599999999998], [14.622299999999996, 121.08599999999998]]}, "properties": {"shape_id": 880814}}, {"type": "Feature", "geometry": {"type": "LineString", "coordinates": [[14.5376, 121.001], [14.538850000000002, 121.0123], [14.54009, 121.01659], [14.5421, 121.02], [14.5492, 121.028], [14.5541, 121.034], [14.55991, 121.04093], [14.56282, 121.04402], [14.56448, 121.04487], [14.5666, 121.04543], [14.56817, 121.04595], [14.569879999999998, 121.04646], [14.571209999999995, 121.04702], [14.572899999999995, 121.048], [14.580999999999998, 121.054], [14.587939999999998, 121.05693], [14.593009999999998, 121.05831], [14.597579999999995, 121.05980999999998], [14.598869999999996, 121.05988999999998], [14.601229999999996, 121.05933999999998], [14.607209999999997, 121.05684999999998], [14.619399999999995, 121.051], [14.631589999999996, 121.04556], [14.635289999999996, 121.04333], [14.642469999999996, 121.03878], [14.651769999999996, 121.03234], [14.651729999999995, 121.0323], [14.651769999999996, 121.03234], [14.651769999999996, 121.03234]]}, "properties": {"shape_id": 880869}}, {"type": "Feature", "geometry": {"type": "LineString", "coordinates": [[14.6507, 120.973], [14.6511, 120.97400000000002], [14.6514, 120.97500000000002], [14.6517, 120.97600000000004], [14.6518, 120.97800000000002], [14.6517, 120.97900000000004], [14.6517, 120.98100000000002], [14.6516, 120.98200000000004], [14.6516, 120.98300000000005], [14.6516, 120.98400000000004], [14.6515, 120.98600000000005], [14.6514, 120.98800000000004], [14.6513, 120.99000000000002], [14.6513, 120.99300000000002], [14.6512, 120.99500000000002], [14.6526, 120.99500000000002], [14.6526, 120.99500000000002]]}, "properties": {"shape_id": 881760}}, {"type": "Feature", "geometry": {"type": "LineString", "coordinates": [[14.601300000000002, 120.98], [14.604400000000002, 120.979], [14.606000000000002, 120.98], [14.608000000000002, 120.98], [14.608900000000002, 120.981], [14.611000000000002, 120.981], [14.611800000000002, 120.98], [14.613200000000004, 120.98], [14.613300000000002, 120.979], [14.613900000000005, 120.977], [14.614700000000004, 120.975], [14.616100000000005, 120.976], [14.616100000000005, 120.976]]}, "properties": {"shape_id": 881761}}, {"type": "Feature", "geometry": {"type": "LineString", "coordinates": [[14.61161, 120.97323000000002], [14.61361, 120.97370000000002], [14.61662, 120.97415000000002], [14.62157, 120.97490000000002], [14.62173, 120.97495000000002], [14.62186, 120.97507000000002], [14.62234, 120.97549000000002], [14.62276, 120.97594000000002], [14.62299, 120.97642000000002], [14.62314, 120.97693000000002], [14.623209999999998, 120.97743000000004], [14.62319, 120.97802000000004], [14.62285, 120.98154000000002], [14.62263, 120.98386000000002], [14.62255, 120.98464000000004], [14.62254, 120.98490000000002], [14.6225, 120.98554000000004], [14.62254, 120.98507000000002], [14.62233, 120.98666], [14.62206, 120.98732], [14.62171, 120.98785], [14.62012, 120.98935], [14.6164, 120.99291], [14.61453, 120.99474], [14.61319, 120.99596], [14.61247, 120.9967], [14.61075, 120.99826], [14.60933, 120.99965], [14.60634, 121.00253], [14.60474, 121.00415], [14.60417, 121.00469], [14.60354, 121.00564], [14.60318, 121.00654], [14.60286, 121.00757], [14.60254, 121.00821], [14.60175, 121.00913], [14.60065, 121.01032], [14.59955, 121.01154], [14.59874, 121.01249], [14.59804, 121.01312], [14.59748, 121.01335], [14.59673, 121.0134], [14.59594, 121.0131], [14.59509, 121.01267], [14.59079, 121.00908], [14.58412, 121.00357], [14.58169, 121.00149], [14.579, 120.999], [14.57806, 120.99844000000002], [14.5774, 120.99808000000002], [14.57683, 120.99801000000002], [14.57609, 120.99805000000002], [14.57281, 120.99971000000002], [14.5669, 121.00300000000004], [14.5574, 121.00800000000002], [14.5509, 121.01200000000004], [14.5408, 121.01700000000002], [14.5235, 121.02600000000002], [14.5064, 121.03600000000004], [14.48787, 121.04569000000004], [14.47827, 121.05037000000004], [14.47579, 121.05091000000004], [14.47069, 121.05080000000002], [14.46986, 121.05091000000004], [14.46609, 121.05226000000005], [14.46498, 121.05234000000004], [14.45037, 121.05069000000005], [14.4442, 121.05010000000004], [14.43485, 121.04905000000002], [14.43216, 121.04874000000002], [14.429610000000002, 121.04838000000002], [14.424520000000005, 121.04773000000004], [14.385920000000002, 121.04763000000004], [14.381570000000002, 121.04755000000004], [14.379390000000004, 121.04749000000002], [14.377220000000005, 121.04753000000002], [14.376530000000002, 121.04757000000002], [14.375280000000002, 121.04784000000002], [14.373500000000002, 121.04881000000002], [14.369040000000002, 121.05126], [14.365520000000002, 121.05320000000002], [14.365240000000002, 121.05334000000002], [14.364960000000002, 121.05359], [14.364570000000002, 121.0538], [14.359980000000002, 121.05623], [14.355700000000002, 121.05857000000002], [14.348780000000003, 121.06237000000002], [14.347820000000004, 121.06291000000002], [14.346870000000004, 121.06353], [14.338830000000003, 121.07266], [14.334860000000004, 121.07716], [14.332810000000004, 121.07947], [14.330890000000004, 121.08155], [14.330860000000005, 121.08155], [14.330870000000004, 121.08153], [14.330870000000004, 121.08153], [14.330870000000004, 121.08153], [14.330870000000004, 121.08153], [14.330870000000004, 121.08153], [14.330870000000004, 121.08153]]}, "properties": {"shape_id": 881953}}, {"type": "Feature", "geometry": {"type": "LineString", "coordinates": [[14.5376, 121.001], [14.538850000000002, 121.0123], [14.54009, 121.01659], [14.5421, 121.02], [14.5492, 121.028], [14.5541, 121.034], [14.55991, 121.04093], [14.56282, 121.04402], [14.56448, 121.04487], [14.5666, 121.04543], [14.56817, 121.04595], [14.569879999999998, 121.04646], [14.571209999999995, 121.04702], [14.572899999999995, 121.048], [14.580999999999998, 121.054], [14.587939999999998, 121.05693], [14.593009999999998, 121.05831], [14.597579999999995, 121.05980999999998], [14.598869999999996, 121.05988999999998], [14.601229999999996, 121.05933999999998], [14.607209999999997, 121.05684999999998], [14.619399999999995, 121.051], [14.631589999999996, 121.04556], [14.635289999999996, 121.04333], [14.642469999999996, 121.03878], [14.651769999999996, 121.03234], [14.651729999999995, 121.0323], [14.651769999999996, 121.03234], [14.651769999999996, 121.03234]]}, "properties": {"shape_id": 882062}}, {"type": "Feature", "geometry": {"type": "LineString", "coordinates": [[14.61161, 120.97323000000002], [14.61361, 120.97370000000002], [14.61662, 120.97415000000002], [14.62157, 120.97490000000002], [14.62173, 120.97495000000002], [14.62186, 120.97507000000002], [14.62234, 120.97549000000002], [14.62276, 120.97594000000002], [14.62299, 120.97642000000002], [14.62314, 120.97693000000002], [14.623209999999998, 120.97743000000004], [14.62319, 120.97802000000004], [14.62285, 120.98154000000002], [14.62263, 120.98386000000002], [14.62255, 120.98464000000004], [14.62254, 120.98490000000002], [14.6225, 120.98554000000004], [14.62254, 120.98507000000002], [14.62233, 120.98666], [14.62206, 120.98732], [14.62171, 120.98785], [14.62012, 120.98935], [14.6164, 120.99291], [14.61453, 120.99474], [14.61319, 120.99596], [14.61247, 120.9967], [14.61075, 120.99826], [14.60933, 120.99965], [14.60634, 121.00253], [14.60474, 121.00415], [14.60417, 121.00469], [14.60354, 121.00564], [14.60318, 121.00654], [14.60286, 121.00757], [14.60254, 121.00821], [14.60175, 121.00913], [14.60065, 121.01032], [14.59955, 121.01154], [14.59874, 121.01249], [14.59804, 121.01312], [14.59748, 121.01335], [14.59673, 121.0134], [14.59594, 121.0131], [14.59509, 121.01267], [14.59079, 121.00908], [14.58412, 121.00357], [14.58169, 121.00149], [14.579, 120.999], [14.57806, 120.99844000000002], [14.5774, 120.99808000000002], [14.57683, 120.99801000000002], [14.57609, 120.99805000000002], [14.57281, 120.99971000000002], [14.5669, 121.00300000000004], [14.5574, 121.00800000000002], [14.5509, 121.01200000000004], [14.5408, 121.01700000000002], [14.5235, 121.02600000000002], [14.5064, 121.03600000000004], [14.48787, 121.04569000000004], [14.47827, 121.05037000000004], [14.47579, 121.05091000000004], [14.47069, 121.05080000000002], [14.46986, 121.05091000000004], [14.46609, 121.05226000000005], [14.46498, 121.05234000000004], [14.45037, 121.05069000000005], [14.4442, 121.05010000000004], [14.43485, 121.04905000000002], [14.43216, 121.04874000000002], [14.429610000000002, 121.04838000000002], [14.424520000000005, 121.04773000000004], [14.385920000000002, 121.04763000000004], [14.381570000000002, 121.04755000000004], [14.379390000000004, 121.04749000000002], [14.377220000000005, 121.04753000000002], [14.376530000000002, 121.04757000000002], [14.375280000000002, 121.04784000000002], [14.373500000000002, 121.04881000000002], [14.369040000000002, 121.05126], [14.365520000000002, 121.05320000000002], [14.365240000000002, 121.05334000000002], [14.364960000000002, 121.05359], [14.364570000000002, 121.0538], [14.359980000000002, 121.05623], [14.355700000000002, 121.05857000000002], [14.348780000000003, 121.06237000000002], [14.347820000000004, 121.06291000000002], [14.346870000000004, 121.06353], [14.338830000000003, 121.07266], [14.334860000000004, 121.07716], [14.332810000000004, 121.07947], [14.330890000000004, 121.08155], [14.330860000000005, 121.08155], [14.330870000000004, 121.08153], [14.330870000000004, 121.08153], [14.330870000000004, 121.08153], [14.330870000000004, 121.08153], [14.330870000000004, 121.08153], [14.330870000000004, 121.08153]]}, "properties": {"shape_id": 882086}}, {"type": "Feature", "geometry": {"type": "LineString", "coordinates": [[14.6035, 120.983], [14.6024, 120.98707], [14.60049, 120.99078], [14.60052, 120.99149], [14.60072, 120.99205], [14.600980000000002, 120.9929], [14.60114, 120.99349], [14.60119, 120.99402], [14.6006, 120.99598], [14.60063, 120.99651], [14.60085, 120.99727], [14.600930000000002, 120.99770999999998], [14.600770000000002, 120.99804999999998], [14.600680000000002, 120.99830999999998], [14.600630000000002, 120.99859999999998], [14.600590000000002, 120.99889], [14.600680000000002, 120.99921], [14.600790000000002, 120.99958], [14.600920000000002, 120.99982], [14.601060000000002, 121.00016], [14.601240000000002, 121.00128], [14.601650000000005, 121.0042], [14.604200000000002, 121.017], [14.609040000000002, 121.02228], [14.609500000000002, 121.02301], [14.610500000000002, 121.026], [14.612510000000002, 121.03226], [14.615330000000002, 121.03732], [14.617990000000002, 121.04187], [14.619220000000002, 121.04402], [14.620960000000002, 121.04892999999998], [14.62299, 121.05329], [14.62769, 121.06283], [14.62804, 121.06504], [14.62841, 121.06689], [14.62883, 121.06809], [14.63111, 121.07303], [14.63252, 121.07599], [14.632550000000002, 121.07657], [14.632300000000004, 121.0774], [14.631840000000002, 121.07781], [14.630680000000002, 121.07873], [14.62596, 121.08204], [14.62434, 121.08357], [14.62392, 121.08406], [14.62326, 121.08479], [14.623, 121.08512], [14.6223, 121.086], [14.6223, 121.086], [14.6223, 121.086], [14.62227, 121.08603], [14.62221, 121.08601], [14.622559999999998, 121.08565], [14.622299999999996, 121.08599999999998], [14.622299999999996, 121.08599999999998], [14.622299999999996, 121.08599999999998]]}, "properties": {"shape_id": 882116}}, {"type": "Feature", "geometry": {"type": "LineString", "coordinates": [[14.5339, 120.998], [14.53486, 120.99874], [14.53613, 120.99975], [14.53754, 121.00074], [14.53823, 121.00078], [14.5412, 121.0002], [14.54471, 120.99941], [14.54778, 120.99861], [14.55152, 120.99775], [14.55571, 120.99681], [14.55779, 120.99634], [14.56126, 120.99561], [14.5628, 120.99513999999998], [14.56419, 120.99450999999998], [14.5679, 120.99281999999998], [14.57046, 120.99152999999998], [14.57297, 120.99011], [14.57625, 120.9882], [14.57908, 120.98664], [14.58198, 120.98501], [14.58408, 120.98382999999998], [14.5861, 120.98264999999998], [14.58713, 120.98204999999996], [14.58772, 120.98212999999996], [14.58867, 120.98225999999995], [14.59177, 120.98193999999997], [14.5943, 120.98116999999996], [14.59615, 120.98068999999995], [14.59764, 120.98092999999996], [14.59889, 120.98133999999996], [14.60188, 120.98184999999998], [14.605300000000002, 120.982], [14.60939, 120.98233], [14.61315, 120.98263], [14.61579, 120.98270999999998], [14.61849, 120.98282], [14.621290000000002, 120.98286], [14.624050000000002, 120.9829], [14.625360000000002, 120.98299], [14.628430000000002, 120.98308], [14.62914, 120.98279999999998], [14.631150000000002, 120.98103999999998], [14.631940000000002, 120.98068999999998], [14.632690000000002, 120.9808], [14.636900000000002, 120.98269], [14.638440000000005, 120.98336], [14.644400000000005, 120.98357], [14.646890000000004, 120.98373999999998], [14.650230000000002, 120.98380999999998], [14.656100000000002, 120.98399999999998], [14.656810000000002, 120.98431999999998], [14.65715, 120.98479], [14.65717, 120.98526], [14.65715, 120.98591], [14.657190000000002, 120.98691999999998], [14.657270000000002, 120.98901999999998], [14.657400000000004, 121.00399999999998], [14.657620000000003, 121.02025999999998], [14.657500000000002, 121.02199999999998], [14.657500000000002, 121.02199999999998]]}, "properties": {"shape_id": 882144}}, {"type": "Feature", "geometry": {"type": "LineString", "coordinates": [[14.5339, 120.998], [14.53486, 120.99874], [14.53613, 120.99975], [14.53754, 121.00074], [14.53823, 121.00078], [14.5412, 121.0002], [14.54471, 120.99941], [14.54778, 120.99861], [14.55152, 120.99775], [14.55571, 120.99681], [14.55779, 120.99634], [14.56126, 120.99561], [14.5628, 120.99513999999998], [14.56419, 120.99450999999998], [14.5679, 120.99281999999998], [14.57046, 120.99152999999998], [14.57297, 120.99011], [14.57625, 120.9882], [14.57908, 120.98664], [14.58198, 120.98501], [14.58408, 120.98382999999998], [14.5861, 120.98264999999998], [14.58713, 120.98204999999996], [14.58772, 120.98212999999996], [14.58867, 120.98225999999995], [14.59177, 120.98193999999997], [14.5943, 120.98116999999996], [14.59615, 120.98068999999995], [14.59764, 120.98092999999996], [14.59889, 120.98133999999996], [14.60188, 120.98184999999998], [14.605300000000002, 120.982], [14.60939, 120.98233], [14.61315, 120.98263], [14.61579, 120.98270999999998], [14.61849, 120.98282], [14.621290000000002, 120.98286], [14.624050000000002, 120.9829], [14.625360000000002, 120.98299], [14.628430000000002, 120.98308], [14.62914, 120.98279999999998], [14.631150000000002, 120.98103999999998], [14.631940000000002, 120.98068999999998], [14.632690000000002, 120.9808], [14.636900000000002, 120.98269], [14.638440000000005, 120.98336], [14.644400000000005, 120.98357], [14.646890000000004, 120.98373999999998], [14.650230000000002, 120.98380999999998], [14.656100000000002, 120.98399999999998], [14.656810000000002, 120.98431999999998], [14.65715, 120.98479], [14.65717, 120.98526], [14.65715, 120.98591], [14.657190000000002, 120.98691999999998], [14.657270000000002, 120.98901999999998], [14.657400000000004, 121.00399999999998], [14.657620000000003, 121.02025999999998], [14.657500000000002, 121.02199999999998], [14.657500000000002, 121.02199999999998]]}, "properties": {"shape_id": 882188}}]}