{
  "type": "FeatureCollection",
  "features": [
    {
      "type": "Feature",
      "properties": {"shape_id": "SHAPE_LRT1"},
      "geometry": {
        "type": "LineString",
        "coordinates": [
          [120.9983, 14.5343], [120.9988, 14.5389], [120.9945, 14.5490],
          [120.9944, 14.5539], [120.9943, 14.5632], [120.9941, 14.5714],
          [120.9940, 14.5793], [120.9840, 14.5868], [120.9815, 14.5925],
          [120.9817, 14.5984], [120.9833, 14.6013], [120.9821, 14.6063],
          [120.9817, 14.6116], [120.9822, 14.6189], [120.9823, 14.6256],
          [120.9821, 14.6303], [120.9818, 14.6366], [120.9824, 14.6443],
          [120.9837, 14.6573], [120.9838, 14.6574]
        ]
      }
    },
    {
      "type": "Feature",
      "properties": {"shape_id": "SHAPE_LRT2"},
      "geometry": {
        "type": "LineString",
        "coordinates": [
          [120.9916, 14.6040], [120.9942, 14.6034], [121.0030, 14.6032],
          [121.0074, 14.6043], [121.0175, 14.6044], [121.0266, 14.6037],
          [121.0387, 14.6085], [121.0485, 14.6089], [121.0563, 14.6078],
          [121.0658, 14.6077], [121.0752, 14.6080], [121.0886, 14.6207],
          [121.1042, 14.6203]
        ]
      }
    },
    {
      "type": "Feature",
      "properties": {"shape_id": "SHAPE_MRT3"},
      "geometry": {
        "type": "LineString",
        "coordinates": [
          [121.0349, 14.5506], [121.0343, 14.5548], [121.0374, 14.5671],
          [121.0396, 14.5724], [121.0411, 14.5814], [121.0426, 14.5875],
          [121.0426, 14.5921], [121.0422, 14.5973], [121.0413, 14.6026],
          [121.0486, 14.6087], [121.0515, 14.6192], [121.0433, 14.6356],
          [121.0385, 14.6509]
        ]
      }
    },
    {
      "type": "Feature",
      "properties": {"shape_id": "SHAPE_EC_NB"},
      "geometry": {
        "type": "LineString",
        "coordinates": [
          [121.0006, 14.5375], [121.0003, 14.5398], [121.0349, 14.5506],
          [121.0374, 14.5671], [121.0411, 14.5814], [121.0426, 14.5921],
          [121.0422, 14.5973], [121.0486, 14.6087], [121.0515, 14.6192],
          [121.0433, 14.6356], [121.0385, 14.6509]
        ]
      }
    },
    {
      "type": "Feature",
      "properties": {"shape_id": "SHAPE_EC_SB"},
      "geometry": {
        "type": "LineString",
        "coordinates": [
          [121.0385, 14.6509], [121.0433, 14.6356], [121.0515, 14.6192],
          [121.0486, 14.6087], [121.0422, 14.5973], [121.0426, 14.5921],
          [121.0411, 14.5814], [121.0374, 14.5671], [121.0349, 14.5506],
          [121.0003, 14.5398], [121.0006, 14.5375]
        ]
      }
    },
    {
      "type": "Feature",
      "properties": {"shape_id": "SHAPE_MC"},
      "geometry": {
        "type": "LineString",
        "coordinates": [
          [120.9908, 14.5226], [120.9908, 14.5119], [120.9856, 14.4927],
          [120.9792, 14.4785], [120.9696, 14.4554], [120.9540, 14.4228],
          [120.9370, 14.4081], [120.9176, 14.3890], [120.8936, 14.3772],
          [120.8764, 14.3716]
        ]
      }
    },
    {
      "type": "Feature",
      "properties": {"shape_id": "SHAPE_FQ"},
      "geometry": {
        "type": "LineString",
        "coordinates": [
          [121.0537, 14.7174], [121.0491, 14.7089], [121.0497, 14.6960],
          [121.0451, 14.6816], [121.0371, 14.6651], [121.0310, 14.6536],
          [121.0162, 14.6382], [121.0004, 14.6191], [120.9842, 14.5995]
        ]
      }
    },
    {
      "type": "Feature",
      "properties": {"shape_id": "SHAPE_CA"},
      "geometry": {
        "type": "LineString",
        "coordinates": [
          [121.0486, 14.6087], [121.0422, 14.5973], [121.0411, 14.5814],
          [121.0374, 14.5671], [121.0349, 14.5506], [121.0006, 14.5375],
          [120.9856, 14.4927], [120.9696, 14.4554]
        ]
      }
    },
    {
      "type": "Feature",
      "properties": {"shape_id": "SHAPE_MP"},
      "geometry": {
        "type": "LineString",
        "coordinates": [
          [120.9838, 14.6544], [120.9832, 14.6350], [120.9822, 14.6189],
          [120.9817, 14.5984], [120.9940, 14.5793], [120.9943, 14.5632],
          [120.9944, 14.5539], [120.9985, 14.5370]
        ]
      }
    },
    {
      "type": "Feature",
      "properties": {"shape_id": "SHAPE_CSN"},
      "geometry": {
        "type": "LineString",
        "coordinates": [
          [121.0537, 14.7174], [121.0491, 14.7089], [121.0451, 14.6816],
          [121.0371, 14.6651], [121.0310, 14.6536], [121.0280, 14.6561]
        ]
      }
    },
    {
      "type": "Feature",
      "properties": {"shape_id": "SHAPE_PL"},
      "geometry": {
        "type": "LineString",
        "coordinates": [
          [121.0588, 14.3748], [121.0436, 14.4127], [121.0213, 14.4305],
          [120.9696, 14.4554], [120.9856, 14.4927], [121.0006, 14.5375],
          [120.9944, 14.5539]
        ]
      }
    },
    {
      "type": "Feature",
      "properties": {"shape_id": "SHAPE_ND"},
      "geometry": {
        "type": "LineString",
        "coordinates": [
          [121.0491, 14.7089], [121.0451, 14.6816], [120.9837, 14.6573],
          [120.9838, 14.6544], [120.9832, 14.6350], [120.9822, 14.6189],
          [120.9738, 14.6108]
        ]
      }
    },
    {
      "type": "Feature",
      "properties": {"shape_id": "SHAPE_AC"},
      "geometry": {
        "type": "LineString",
        "coordinates": [
          [121.1756, 14.5858], [121.1350, 14.5935], [121.1113, 14.5981],
          [121.0866, 14.6059], [121.0563, 14.6078], [121.0486, 14.6087]
        ]
      }
    }
  ]
}
